0 FENGYUN 1C DEB
1 30906U 99025AYU 13280.60078107  .00000700  00000-0  43930-3 0  5182
2 30906 098.8478 211.4499 0087677 156.8722 203.6430 14.05777778338498
0 FENGYUN 1C DEB
1 30906U 99025AYU 13287.07768105  .00000787  00000-0  49178-3 0  5202
2 30906 098.8440 217.7651 0084755 138.9741 221.8334 14.05790275339406
0 FENGYUN 1C DEB
1 30906U 99025AYU 13288.99936969  .00000849  00000-0  52830-3 0  5218
2 30906 098.8441 219.6417 0085576 134.0980 226.7554 14.05795368339677
0 FENGYUN 1C DEB
1 30906U 99025AYU 13291.06340652  .00000957  00000-0  59038-3 0  5226
2 30906 098.8503 221.6737 0089393 129.1368 231.8591 14.05801899339967
0 FENGYUN 1C DEB
1 30906U 99025AYU 13293.05624874  .00001061  00000-0  65107-3 0  5230
2 30906 098.8553 223.6288 0090400 123.5643 237.4540 14.05808021340243
